OBJECT_NAME,OBJECT_ID,EPOCH,MEAN_MOTION,ECCENTRICITY,INCLINATION,RA_OF_ASC_NODE,ARG_OF_PERICENTER,MEAN_ANOMALY,EPHEMERIS_TYPE,CLASSIFICATION_TYPE,NORAD_CAT_ID,ELEMENT_SET_NO,REV_AT_EPOCH,BSTAR,MEAN_MOTION_DOT,MEAN_MOTION_DDOT
STARLINK-37998,2026-145C,2026-07-16T03:00:33.753024,15.75208093,.00019661,97.2853,44.0140,82.3147,277.8341,0,U,69679,999,332,.49383768E-3,.74234E-3,0
STARLINK-37994,2026-145D,2026-07-16T03:02:35.377440,15.75162752,.0001014,97.2827,44.0137,120.7092,239.4273,0,U,69680,999,332,.80665202E-3,.121772E-2,0
STARLINK-37992,2026-145E,2026-07-16T03:02:05.018208,15.75165873,.00012584,97.2828,44.0130,104.9615,255.1789,0,U,69681,999,332,.89699822E-3,.135666E-2,0
STARLINK-37997,2026-145F,2026-07-16T06:00:02.000160,15.75239653,.00014428,97.2843,44.1465,96.8067,247.5992,0,U,69682,999,459,-.10304264E-2,-.151461E-2,0
STARLINK-37990,2026-145G,2026-07-16T06:00:02.000160,15.75220077,.0001421,97.2843,44.1455,88.4424,253.9643,0,U,69683,999,459,-.7530142E-3,-.111144E-2,0
STARLINK-37951,2026-145H,2026-07-16T03:00:03.203712,15.75127827,.0001135,97.2835,44.0153,108.8118,251.3270,0,U,69684,999,332,.93455606E-3,.141212E-2,0
STARLINK-37957,2026-145J,2026-07-16T02:58:31.720800,15.75144584,.00019737,97.2828,44.0171,77.6258,282.5228,0,U,69685,999,332,.9429219E-3,.14261E-2,0
STARLINK-37968,2026-145K,2026-07-16T02:49:53.349312,15.75164733,.00019742,97.2831,44.0262,114.3346,245.8126,0,U,69686,999,332,.87633556E-3,.132487E-2,0
STARLINK-37977,2026-145L,2026-07-16T02:48:52.241184,15.75291828,.00007464,97.2831,44.0271,122.2887,237.8451,0,U,69687,999,332,.12389558E-2,.189663E-2,0
STARLINK-37908,2026-145M,2026-07-16T02:45:49.301280,15.75168121,.00014528,97.2832,44.0308,115.5653,244.5763,0,U,69688,999,332,.10496902E-2,.159241E-2,0
STARLINK-37979,2026-145N,2026-07-16T02:45:18.848736,15.75185213,.00013065,97.2831,44.0298,120.4164,239.7231,0,U,69689,999,332,.73260998E-4,.10809E-3,0
STARLINK-37940,2026-145P,2026-07-16T05:46:45.165792,15.75231113,.0000946,97.2832,44.1661,97.3577,262.7796,0,U,69690,999,334,.25661026E-3,.38385E-3,0
STARLINK-37961,2026-145Q,2026-07-16T02:39:13.422528,15.75171132,.00023182,97.2829,44.0361,77.3720,282.7804,0,U,69691,999,332,.10012005E-2,.151774E-2,0
STARLINK-37787,2026-145R,2026-07-16T07:10:36.941088,15.75236284,.000191,97.2834,44.2385,81.9046,278.2436,0,U,69692,999,335,.96873912E-3,.147178E-2,0
STARLINK-37962,2026-145S,2026-07-16T07:08:04.163424,15.75214683,.00009353,97.2827,44.2418,85.2563,274.8809,0,U,69693,999,335,.86242812E-3,.13063E-2,0
STARLINK-37953,2026-145T,2026-07-16T02:37:41.774592,15.75174206,.00018041,97.2825,44.0370,89.7268,270.4204,0,U,69694,999,332,.88008699E-3,.133118E-2,0
STARLINK-37926,2026-145U,2026-07-16T06:00:02.000160,15.75221874,.00014673,97.2837,44.1882,92.4846,347.9096,0,U,69695,999,459,-.82006361E-3,-.120902E-2,0
STARLINK-37959,2026-145V,2026-07-16T02:35:09.441024,15.75177379,.00020765,97.2821,44.0394,78.6673,281.4826,0,U,69696,999,332,.10144503E-2,.15386E-2,0
STARLINK-37976,2026-145W,2026-07-16T07:05:31.426368,15.75182832,.00003128,97.2844,44.2440,132.1014,228.0278,0,U,69697,999,335,.77731096E-3,.11738E-2,0
STARLINK-37912,2026-145X,2026-07-16T02:29:33.881568,15.75163560,.00019508,97.2828,44.0458,103.1011,257.0472,0,U,69698,999,332,.9546041E-3,.144529E-2,0
STARLINK-37974,2026-145Y,2026-07-16T02:28:33.148416,15.75159347,.00024199,97.2825,44.0467,74.6776,285.4757,0,U,69699,999,332,.83462524E-3,.126056E-2,0
STARLINK-37955,2026-145Z,2026-07-16T02:24:59.605632,15.75198446,.00014946,97.2830,44.0507,87.9606,272.1831,0,U,69700,999,332,.71256526E-3,.107542E-2,0
STRIX-8,2026-146A,2026-07-15T22:46:48.745056,15.04437812,.00070719,41.9903,8.9164,27.8018,332.3186,0,U,69701,999,289,.17341492E-3,.2275E-4,0
ELECTRON R/B,2026-146B,2026-07-15T19:15:03.336480,15.75637069,.01671311,42.0736,358.9122,24.6344,336.2381,0,U,69702,999,300,.10176494E-2,.417328E-2,.62506283E-4
ELECTRON KICK STAGE R/B,2026-146C,2026-07-15T21:01:46.221024,15.04945879,.0008879,41.9887,9.2307,28.4070,331.7240,0,U,69703,999,288,.15024E-3,.1974E-4,0
STARLINK-38055,2026-147A,2026-07-16T01:19:50.313216,15.80912979,.00007696,97.2817,233.4914,94.3750,265.7607,0,U,69704,999,399,.93611892E-3,.183808E-2,0
STARLINK-37898,2026-147B,2026-07-16T04:20:57.561792,15.80857294,.00013376,97.2822,233.6265,101.5807,258.5611,0,U,69705,999,401,.45385614E-3,.87838E-3,0
STARLINK-37970,2026-147C,2026-07-16T04:19:52.861152,15.80846162,.00014297,97.2825,233.6291,114.6340,245.5077,0,U,69706,999,401,.66532638E-3,.129385E-2,0
STARLINK-37975,2026-147D,2026-07-16T01:16:29.230176,15.80942955,.00006306,97.2821,233.4953,122.1800,237.9530,0,U,69707,999,399,.1323767E-2,.262731E-2,0
STARLINK-37972,2026-147E,2026-07-16T01:15:23.488416,15.81101041,.00014813,97.2822,233.4968,148.6028,211.5330,0,U,69708,999,399,.14359854E-2,.287913E-2,0
