STARLINK-37998          
1 69679U 26145C   26197.12539066  .00074234  00000+0  49384-3 0  9992
2 69679  97.2853  44.0140 0001966  82.3147 277.8341 15.75208093  3323
STARLINK-37994          
1 69680U 26145D   26197.12679835  .00121772  00000+0  80665-3 0  9990
2 69680  97.2827  44.0137 0001014 120.7092 239.4273 15.75162752  3321
STARLINK-37992          
1 69681U 26145E   26197.12644697  .00135666  00000+0  89700-3 0  9995
2 69681  97.2828  44.0130 0001258 104.9615 255.1789 15.75165873  3325
STARLINK-37997          
1 69682U 26145F   26197.25002315 -.00151461  00000+0 -10304-2 0  9991
2 69682  97.2843  44.1465 0001442  96.8067 247.5992 15.75239653  4599
STARLINK-37990          
1 69683U 26145G   26197.25002315 -.00111144  00000+0 -75301-3 0  9995
2 69683  97.2843  44.1455 0001421  88.4424 253.9643 15.75220077  4594
STARLINK-37951          
1 69684U 26145H   26197.12503708  .00141212  00000+0  93456-3 0  9992
2 69684  97.2835  44.0153 0001135 108.8118 251.3270 15.75127827  3326
STARLINK-37957          
1 69685U 26145J   26197.12397825  .00142610  00000+0  94292-3 0  9996
2 69685  97.2828  44.0171 0001973  77.6258 282.5228 15.75144584  3325
STARLINK-37968          
1 69686U 26145K   26197.11797858  .00132487  00000+0  87634-3 0  9999
2 69686  97.2831  44.0262 0001974 114.3346 245.8126 15.75164733  3326
STARLINK-37977          
1 69687U 26145L   26197.11727131  .00189663  00000+0  12390-2 0  9991
2 69687  97.2831  44.0271 0000746 122.2887 237.8451 15.75291828  3329
STARLINK-37908          
1 69688U 26145M   26197.11515395  .00159241  00000+0  10497-2 0  9994
2 69688  97.2832  44.0308 0001452 115.5653 244.5763 15.75168121  3323
STARLINK-37979          
1 69689U 26145N   26197.11480149  .00010809  00000+0  73261-4 0  9999
2 69689  97.2831  44.0298 0001306 120.4164 239.7231 15.75185213  3328
STARLINK-37940          
1 69690U 26145P   26197.24080053  .00038385  00000+0  25661-3 0  9994
2 69690  97.2832  44.1661 0000946  97.3577 262.7796 15.75231113  3340
STARLINK-37961          
1 69691U 26145Q   26197.11057202  .00151774  00000+0  10012-2 0  9992
2 69691  97.2829  44.0361 0002318  77.3720 282.7804 15.75171132  3320
STARLINK-37787          
1 69692U 26145R   26197.29903867  .00147178  00000+0  96874-3 0  9993
2 69692  97.2834  44.2385 0001910  81.9046 278.2436 15.75236284  3358
STARLINK-37962          
1 69693U 26145S   26197.29727041  .00130630  00000+0  86243-3 0  9996
2 69693  97.2827  44.2418 0000935  85.2563 274.8809 15.75214683  3350
STARLINK-37953          
1 69694U 26145T   26197.10951128  .00133118  00000+0  88009-3 0  9998
2 69694  97.2825  44.0370 0001804  89.7268 270.4204 15.75174206  3325
STARLINK-37926          
1 69695U 26145U   26197.25002315 -.00120902  00000+0 -82006-3 0  9990
2 69695  97.2837  44.1882 0001467  92.4846 347.9096 15.75221874  4599
STARLINK-37959          
1 69696U 26145V   26197.10774816  .00153860  00000+0  10145-2 0  9998
2 69696  97.2821  44.0394 0002076  78.6673 281.4826 15.75177379  3324
STARLINK-37976          
1 69697U 26145W   26197.29550262  .00117380  00000+0  77731-3 0  9998
2 69697  97.2844  44.2440 0000312 132.1014 228.0278 15.75182832  3351
STARLINK-37912          
1 69698U 26145X   26197.10386437  .00144529  00000+0  95460-3 0  9994
2 69698  97.2828  44.0458 0001950 103.1011 257.0472 15.75163560  3327
STARLINK-37974          
1 69699U 26145Y   26197.10316144  .00126056  00000+0  83463-3 0  9998
2 69699  97.2825  44.0467 0002419  74.6776 285.4757 15.75159347  3325
STARLINK-37955          
1 69700U 26145Z   26197.10068988  .00107542  00000+0  71257-3 0  9998
2 69700  97.2830  44.0507 0001494  87.9606 272.1831 15.75198446  3329
STRIX-8                 
1 69701U 26146A   26196.94917529  .00002275  00000+0  17341-3 0  9996
2 69701  41.9903   8.9164 0007071  27.8018 332.3186 15.04437812  2890
ELECTRON R/B            
1 69702U 26146B   26196.80212195  .00417328  62506-4  10176-2 0  9990
2 69702  42.0736 358.9122 0167131  24.6344 336.2381 15.75637069  3008
ELECTRON KICK STAGE R/B 
1 69703U 26146C   26196.87622941  .00001974  00000+0  15024-3 0  9992
2 69703  41.9887   9.2307 0008879  28.4070 331.7240 15.04945879  2888
STARLINK-38055          
1 69704U 26147A   26197.05544344  .00183808  00000+0  93612-3 0  9991
2 69704  97.2817 233.4914 0000769  94.3750 265.7607 15.80912979  3993
STARLINK-37898          
1 69705U 26147B   26197.18122178  .00087838  00000+0  45386-3 0  9994
2 69705  97.2822 233.6265 0001337 101.5807 258.5611 15.80857294  4014
STARLINK-37970          
1 69706U 26147C   26197.18047293  .00129385  00000+0  66533-3 0  9990
2 69706  97.2825 233.6291 0001429 114.6340 245.5077 15.80846162  4010
STARLINK-37975          
1 69707U 26147D   26197.05311609  .00262731  00000+0  13238-2 0  9998
2 69707  97.2821 233.4953 0000630 122.1800 237.9530 15.80942955  3990
STARLINK-37972          
1 69708U 26147E   26197.05235519  .00287913  00000+0  14360-2 0  9990
2 69708  97.2822 233.4968 0001481 148.6028 211.5330 15.81101041  3998
